HULIANWANG DIGUI 13A    
1 66412U 25258A   25341.30490168  .00000567  00000+0  33085-3 0  9996
2 66412  50.0043 284.8754 0009627 337.5879  22.4612 14.21250084  3880
HULIANWANG DIGUI 13B    
1 66413U 25258B   25341.24324499  .00000653  00000+0  37448-3 0  9996
2 66413  50.0006 285.2053 0008598 336.8166  23.2357 14.20619145  3874
HULIANWANG DIGUI 13C    
1 66414U 25258C   25341.31015539  .00000649  00000+0  37132-3 0  9992
2 66414  50.0051 284.9075 0009123 336.8193  23.2306 14.20776676  3888
HULIANWANG DIGUI 13D    
1 66415U 25258D   25341.30319677  .00000539  00000+0  31700-3 0  9995
2 66415  50.0046 284.8666 0009153 343.9806  16.0815 14.21453615  3882
HULIANWANG DIGUI 13E    
1 66416U 25258E   25340.25371123  .00000740  00000+0  40565-3 0  9996
2 66416  50.0051 289.3198 0010611 342.4117  17.6426 14.21759879  3739
HULIANWANG DIGUI 13F    
1 66417U 25258F   25340.60358688  .00000626  00000+0  35323-3 0  9996
2 66417  50.0001 287.8136 0010224 341.4358  18.6180 14.21933133  3786
HULIANWANG DIGUI 13G    
1 66418U 25258G   25341.30164182  .00000521  00000+0  30793-3 0  9999
2 66418  50.0012 284.8412 0008104 339.3875  20.6709 14.21580215  3887
HULIANWANG DIGUI 13H    
1 66419U 25258H   25341.29988298  .00000483  00000+0  28989-3 0  9991
2 66419  50.0007 284.8288 0007563 339.8057  20.2555 14.21707586  3885
HULIANWANG DIGUI 13J    
1 66420U 25258J   25341.29846135  .00000482  00000+0  28872-3 0  9996
2 66420  50.0007 284.8319 0006791 346.1040  13.9684 14.21873195  3878
CZ-12 R/B               
1 66421U 25258K   25341.31579072  .00000265  00000+0  12787-3 0  9990
2 66421  49.9961 281.4840 0064515 229.9079 129.6175 14.42320426  3939
STARLINK-35617          
1 66422U 25259A   25341.25005787  .00086211  00000+0  20532-2 0  9993
2 66422  43.0007  79.7417 0001105 259.6203 159.4131 15.40621207  5394
STARLINK-35618          
1 66423U 25259B   25341.25005787  .00093040  00000+0  22133-2 0  9991
2 66423  43.0004  79.7117 0001308 267.2773 164.1878 15.40620028  5392
